{"type": "FeatureCollection", "features": [ {"type": "Feature", "properties": {"norad_id": 64202, "name": "GPS BIII-8  (PRN 21)", "group": "gnss", "lat": 31.892104887491794, "lon": 64.25291026236135, "alt_km": 20179.29300259735, "timestamp": "2025-12-15T15:53:20.099377+00:00", "meta": {"OBJECT_NAME": "GPS BIII-8  (PRN 21)", "OBJECT_ID": "2025-116A", "EPOCH": "2025-12-14T02:46:13.653120", "MEAN_MOTION": 2.00558299, "ECCENTRICITY": 0.00056153, "INCLINATION": 55.1067, "RA_OF_ASC_NODE": 38.5851, "ARG_OF_PERICENTER": 308.147, "MEAN_ANOMALY": 55.2369, "EPHEMERIS_TYPE": 0, "CLASSIFICATION_TYPE": "U", "NORAD_CAT_ID": 64202, "ELEMENT_SET_NO": 999, "REV_AT_EPOCH": 416, "BSTAR": 0, "MEAN_MOTION_DOT": -9.6e-07, "MEAN_MOTION_DDOT": 0}, "tle": {"line1": "1 64202U 25116A   25348.11543580 -.00000096  00000+0  00000+0 0  9992", "line2": "2 64202  55.1067  38.5851 0005615 308.1470  55.2369  2.00558299  4161"}}, "geometry": {"type": "Point", "coordinates": [64.25291026236135, 31.892104887491794]}}, {"type": "Feature", "properties": {"norad_id": 65590, "name": "COSMOS 2596 (708K)", "group": "gnss", "lat": 51.82096153836519, "lon": 104.47053395673178, "alt_km": 19159.772975853946, "timestamp": "2025-12-15T15:53:20.099389+00:00", "meta": {"OBJECT_NAME": "COSMOS 2596 (708K)", "OBJECT_ID": "2025-206B", "EPOCH": "2025-12-14T19:11:43.005984", "MEAN_MOTION": 2.13100538, "ECCENTRICITY": 0.00140549, "INCLINATION": 64.743, "RA_OF_ASC_NODE": 321.4024, "ARG_OF_PERICENTER": 306.7253, "MEAN_ANOMALY": 231.3639, "EPHEMERIS_TYPE": 0, "CLASSIFICATION_TYPE": "U", "NORAD_CAT_ID": 65590, "ELEMENT_SET_NO": 999, "REV_AT_EPOCH": 198, "BSTAR": 0, "MEAN_MOTION_DOT": -6.7e-07, "MEAN_MOTION_DDOT": 0}, "tle": {"line1": "1 65590U 25206B   25348.79980331 -.00000067  00000+0  00000+0 0  9994", "line2": "2 65590  64.7430 321.4024 0014054 306.7253 231.3639  2.13100538  1985"}}, "geometry": {"type": "Point", "coordinates": [104.47053395673178, 51.82096153836519]}}]}